{"type":"FeatureCollection","features":[{"type":"Feature","geometry":{"type":"Point","coordinates":[77.687252,12.755152]},"properties":{"extent":"10A","site location":"","value":"20 Cr","dev type":"GH","seller":"xyz","broker":"Hari","apr":12000,"saleable area":435600,"structure":"Outright"}},{"type":"Feature","geometry":{"type":"Point","coordinates":[77.697986,12.863994]},"properties":{"extent":"20A","site location":"","value":"22 Cr","dev type":"Plotted","seller":"bxv","broker":"Mukund","apr":13524,"saleable area":"8987889","structure":"Outright"}},{"type":"Feature","geometry":{"type":"Point","coordinates":[77.703646,12.851081]},"properties":{"extent":"30A","site location":"","value":"25 Cr","dev type":"GH","seller":"bcb","broker":"Hari","apr":15646,"saleable area":3323553,"structure":"Outright"}},{"type":"Feature","geometry":{"type":"Point","coordinates":[77.639088,12.885405]},"properties":{"extent":"15A","site location":"","value":"18 Cr","dev type":"Plotted","seller":"bbt","broker":"Mukund","apr":11998,"saleable area":2543253,"structure":"Outright"}}]}