{"type":"FeatureCollection","features":[{"type":"Feature","geometry":{"type":"Point","coordinates":[77.679518,12.899803]},"properties":{"DealID":"ea5cfc25-2c3e-4678-91e0-3e358bghxcr9","LeadName":"Blr-1","Status":"Active","Stage":"Qualified Lead","Land Extent":"80A","City":"Bengaluru","LeadReceivedOn":45908.7708333333,"PrimaryOwner":"Atir","Comments":"Survey sketch shared and massing results awaited\n","SiteLocation":"https://www.google.com/maps/place/12%C2%B056'07.1%22N+77%C2%B041'07.1%22E/@12.9353222,77.6827171,864m/data=!3m2!1e3!4b1!4m4!3m3!8m2!3d12.935317!4d77.685292!5m1!1e2?entry=ttu&g_ep=EgoyMDI1MTAyMC4wIKXMDSoASAFQAw%3D%3D","__PowerAppsId__":"4e538f4c-e006-4071-b091-cbd9ea8e3047"}},{"type":"Feature","geometry":{"type":"Point","coordinates":[77.703369,12.903753]},"properties":{"DealID":"ea5cfc25-2c3e-4678-91e0-3e358bghxcr9","LeadName":"Blr-2","Status":"Active","Stage":"Site Visit","Land Extent":"80A","City":"Bengaluru","LeadReceivedOn":45911,"PrimaryOwner":"Sounder","Comments":"Owner documents awaited","SiteLocation":"https://www.google.com/maps/place/12%C2%B053'56.2%22N+77%C2%B040'46.5%22E/@12.8989444,77.6795833,680m/data=!3m2!1e3!4b1!4m4!3m3!8m2!3d12.8989444!4d77.6795833?entry=ttu&g_ep=EgoyMDI1MDkxMC4wIKXMDSoASAFQAw%3D%3D","__PowerAppsId__":"4e538f4c-e006-4071-b091-cbd9ea8e3047"}},{"type":"Feature","geometry":{"type":"Point","coordinates":[77.644057,12.88265]},"properties":{"DealID":"fb7dfa45-6d5e-1234-10f0-3e45cvhxcr9","LeadName":"Blr-3","Status":"Active","Stage":"Prelim Offer","Land Extent":"33A","City":"Bengaluru","LeadReceivedOn":45911,"PrimaryOwner":"Sounder","Comments":"Owner documents awaited","SiteLocation":"https://www.google.com/maps/place/12%C2%B053'56.2%22N+77%C2%B040'46.5%22E/@12.8989444,77.6795833,680m/data=!3m2!1e3!4b1!4m4!3m3!8m2!3d12.8989444!4d77.6795833?entry=ttu&g_ep=EgoyMDI1MDkxMC4wIKXMDSoASAFQAw%3D%3D","__PowerAppsId__":"4e538f4c-e006-4071-b091-cbd9ea8e3047"}},{"type":"Feature","geometry":{"type":"Point","coordinates":[77.678792,12.878789]},"properties":{"DealID":"3a7e37f8-d516-4509-b209-ae252a3a89d3","LeadName":"Blr-4","Status":"On Hold","Stage":"Advance Offer","Land Extent":"10A","City":"Bengaluru","LeadReceivedOn":45900.7708333333,"PrimaryOwner":"Akhil","Comments":"Survey sketch shared and massing results awaited","SiteLocation":"https://www.google.com/maps/place/Owners+Court+East+Layout+Rd,+Bengaluru,+Kasavanahalli,+Karnataka+560035/@12.8999342,77.6759395,431m/data=!3m2!1e3!4b1!4m6!3m5!1s0x3bae1340be7ecdad:0xe41dc4f62d048289!8m2!3d12.8999342!4d77.677227!16s%2Fg%2F11fw1vq_ql!5m1!1e2?entry=ttu&g_ep=EgoyMDI1MTAxNC4wIKXMDSoASAFQAw%3D%3D","__PowerAppsId__":"6b386777-e230-41ab-aae0-35a99620cb1d"}},{"type":"Feature","geometry":{"type":"Point","coordinates":[77.686648,12.902117]},"properties":{"DealID":"bd4cec15-2b2d-4448-82c0-3e158gbjfdc8","LeadName":"Blr-5","Status":"On Hold","Stage":"Term Sheet","Land Extent":"45A","City":"Bengaluru","LeadReceivedOn":45909,"PrimaryOwner":"Aditya","Comments":"Survey sketch shared and massing results awaited","SiteLocation":"https://www.google.com/maps/place/12%C2%B053'56.2%22N+77%C2%B040'46.5%22E/@12.8989444,77.6795833,680m/data=!3m2!1e3!4b1!4m4!3m3!8m2!3d12.8989444!4d77.6795833?entry=ttu&g_ep=EgoyMDI1MDkxMC4wIKXMDSoASAFQAw%3D%3D","__PowerAppsId__":"4e538f4c-e006-4071-b091-cbd9ea8e3047"}},{"type":"Feature","geometry":{"type":"Point","coordinates":[77.669157,12.864989]},"properties":{"DealID":"ba4cdc15-2b2d-44f8-8fc0-8e158dbffdc8","LeadName":"Blr-6","Status":"On Hold","Stage":"Qualified Lead","Land Extent":"7A","City":"Bengaluru","LeadReceivedOn":45903.7708333333,"PrimaryOwner":"Sounder","Comments":"Site visit done and CDP Map checking to be done","SiteLocation":"https://www.google.com/maps/place/12%C2%B053'56.2%22N+77%C2%B040'46.5%22E/@12.8989444,77.6795833,680m/data=!3m2!1e3!4b1!4m4!3m3!8m2!3d12.8989444!4d77.6795833?entry=ttu&g_ep=EgoyMDI1MDkxMC4wIKXMDSoASAFQAw%3D%3D","__PowerAppsId__":"4e538f4c-e006-4071-b091-cbd9ea8e3047"}},{"type":"Feature","geometry":{"type":"Point","coordinates":[77.681212,12.940225]},"properties":{"DealID":"ba4cdc15-2b2d-44f8-8fc0-8e160pbsfec9","LeadName":"Blr-7","Status":"Dropped","Stage":"Site Visit","Land Extent":"10A","City":"Bengaluru","LeadReceivedOn":45904,"PrimaryOwner":"Harsha","Comments":"","SiteLocation":"https://www.google.com/maps/place/12%C2%B053'56.2%22N+77%C2%B040'46.5%22E/@12.8989444,77.6795833,680m/data=!3m2!1e3!4b1!4m4!3m3!8m2!3d12.8989444!4d77.6795833?entry=ttu&g_ep=EgoyMDI1MDkxMC4wIKXMDSoASAFQAw%3D%3D","__PowerAppsId__":""}},{"type":"Feature","geometry":{"type":"Point","coordinates":[77.640438,12.961295]},"properties":{"DealID":"ba4cdc15-2b2d-44f8-8fc0-8e158dbffdc10","LeadName":"Blr-8","Status":"Dropped","Stage":"Prelim Offer","Land Extent":"10A","City":"Bengaluru","LeadReceivedOn":45905,"PrimaryOwner":"Aditya","Comments":"Owner documents awaited","SiteLocation":"https://www.google.com/maps/place/12%C2%B053'56.2%22N+77%C2%B040'46.5%22E/@12.8989444,77.6795833,680m/data=!3m2!1e3!4b1!4m4!3m3!8m2!3d12.8989444!4d77.6795833?entry=ttu&g_ep=EgoyMDI1MDkxMC4wIKXMDSoASAFQAw%3D%3D","__PowerAppsId__":""}},{"type":"Feature","geometry":{"type":"Point","coordinates":[77.606139,12.855813]},"properties":{"DealID":"ba4cdc15-2b2d-44f8-8fc0-8e161dbfdsfc12","LeadName":"Blr-9","Status":"Dropped","Stage":"Final Offer","Land Extent":"20A","City":"Bengaluru","LeadReceivedOn":45906,"PrimaryOwner":"Akhil","Comments":"Site visit done and CDP Map checking to be done","SiteLocation":"https://www.google.com/maps/place/12%C2%B053'56.2%22N+77%C2%B040'46.5%22E/@12.8989444,77.6795833,680m/data=!3m2!1e3!4b1!4m4!3m3!8m2!3d12.8989444!4d77.6795833?entry=ttu&g_ep=EgoyMDI1MDkxMC4wIKXMDSoASAFQAw%3D%3D","__PowerAppsId__":""}},{"type":"Feature","geometry":{"type":"Point","coordinates":[77.667998,12.881925]},"properties":{"DealID":"ba4cdc15-2b2d-44f8-8fc0-8e170dbffdc13","LeadName":"Blr-10","Status":"Active","Stage":"Advance Offer","Land Extent":"30A","City":"Bengaluru","LeadReceivedOn":45907,"PrimaryOwner":"Sounder","Comments":"Owner documents awaited","SiteLocation":"https://www.google.com/maps/place/12%C2%B053'56.2%22N+77%C2%B040'46.5%22E/@12.8989444,77.6795833,680m/data=!3m2!1e3!4b1!4m4!3m3!8m2!3d12.8989444!4d77.6795833?entry=ttu&g_ep=EgoyMDI1MDkxMC4wIKXMDSoASAFQAw%3D%3D","__PowerAppsId__":""}},{"type":"Feature","geometry":{"type":"Point","coordinates":[78.4230337,17.4718967]},"properties":{"DealID":"ba4cdc15-2b2d-44f8-8fc0-8e158dbffdc13","LeadName":"Hyd-1","Status":"Active","Stage":"Qualified Lead","Land Extent":"10A","City":"Hyderabad","LeadReceivedOn":45908,"PrimaryOwner":"Atir","Comments":"Survey sketch shared and massing results awaited\nSketch shared & APR awaited","SiteLocation":"https://www.google.com/maps/place/12%C2%B053'56.2%22N+77%C2%B040'46.5%22E/@12.8989444,77.6795833,680m/data=!3m2!1e3!4b1!4m4!3m3!8m2!3d12.8989444!4d77.6795833?entry=ttu&g_ep=EgoyMDI1MDkxMC4wIKXMDSoASAFQAw%3D%3D","__PowerAppsId__":""}},{"type":"Feature","geometry":{"type":"Point","coordinates":[78.434272,17.508087]},"properties":{"DealID":"ba4cdc15-2b2d-44f8-8fc0-8e158dbffdc14","LeadName":"Hyd-2","Status":"Active","Stage":"Site Visit","Land Extent":"20A","City":"Hyderabad","LeadReceivedOn":45909,"PrimaryOwner":"Harsha","Comments":"APR Alignment awaited","SiteLocation":"https://www.google.com/maps/place/12%C2%B053'56.2%22N+77%C2%B040'46.5%22E/@12.8989444,77.6795833,680m/data=!3m2!1e3!4b1!4m4!3m3!8m2!3d12.8989444!4d77.6795833?entry=ttu&g_ep=EgoyMDI1MDkxMC4wIKXMDSoASAFQAw%3D%3D","__PowerAppsId__":""}},{"type":"Feature","geometry":{"type":"Point","coordinates":[78.444852,17.466637]},"properties":{"DealID":"ba4cdc15-2b2d-44f8-8fc0-8e171dbffdc15","LeadName":"Hyd-3","Status":"Active","Stage":"Prelim Offer","Land Extent":"55A","City":"Hyderabad","LeadReceivedOn":45910,"PrimaryOwner":"Akanksha","Comments":"Owner documents awaited","SiteLocation":"https://www.google.com/maps/place/12%C2%B053'56.2%22N+77%C2%B040'46.5%22E/@12.8989444,77.6795833,680m/data=!3m2!1e3!4b1!4m4!3m3!8m2!3d12.8989444!4d77.6795833?entry=ttu&g_ep=EgoyMDI1MDkxMC4wIKXMDSoASAFQAw%3D%3D","__PowerAppsId__":""}},{"type":"Feature","geometry":{"type":"Point","coordinates":[78.436272,17.473267]},"properties":{"DealID":"ba4cdc15-2b2d-44f8-8fc0-8e172dbffdc16","LeadName":"Hyd-4","Status":"On Hold","Stage":"Advance Offer","Land Extent":"35A","City":"Hyderabad","LeadReceivedOn":45911,"PrimaryOwner":"Atir","Comments":"Owner documents awaited","SiteLocation":"https://www.google.com/maps/place/12%C2%B053'56.2%22N+77%C2%B040'46.5%22E/@12.8989444,77.6795833,680m/data=!3m2!1e3!4b1!4m4!3m3!8m2!3d12.8989444!4d77.6795833?entry=ttu&g_ep=EgoyMDI1MDkxMC4wIKXMDSoASAFQAw%3D%3D","__PowerAppsId__":""}},{"type":"Feature","geometry":{"type":"Point","coordinates":[78.437784,17.469397]},"properties":{"DealID":"ba4cdc15-2b2d-44f8-8fc0-8e173dbffdc17","LeadName":"Hyd-5","Status":"On Hold","Stage":"Term Sheet","Land Extent":"45A","City":"Hyderabad","LeadReceivedOn":45912,"PrimaryOwner":"Sounder","Comments":"Owner documents awaited","SiteLocation":"https://www.google.com/maps/place/12%C2%B053'56.2%22N+77%C2%B040'46.5%22E/@12.8989444,77.6795833,680m/data=!3m2!1e3!4b1!4m4!3m3!8m2!3d12.8989444!4d77.6795833?entry=ttu&g_ep=EgoyMDI1MDkxMC4wIKXMDSoASAFQAw%3D%3D","__PowerAppsId__":""}},{"type":"Feature","geometry":{"type":"Point","coordinates":[78.451249,17.448214]},"properties":{"DealID":"ba4cdc15-2b2d-44f8-8fc0-8e174dbffdc18","LeadName":"Hyd-6","Status":"On Hold","Stage":"Qualified Lead","Land Extent":"55A","City":"Hyderabad","LeadReceivedOn":45913,"PrimaryOwner":"Faiz","Comments":"Owner documents awaited","SiteLocation":"https://www.google.com/maps/place/12%C2%B053'56.2%22N+77%C2%B040'46.5%22E/@12.8989444,77.6795833,680m/data=!3m2!1e3!4b1!4m4!3m3!8m2!3d12.8989444!4d77.6795833?entry=ttu&g_ep=EgoyMDI1MDkxMC4wIKXMDSoASAFQAw%3D%3D","__PowerAppsId__":""}},{"type":"Feature","geometry":{"type":"Point","coordinates":[78.450793,17.478781]},"properties":{"DealID":"ba4cdc15-2b2d-44f8-8fc0-8e175dbffdc19","LeadName":"Hyd-7","Status":"Dropped","Stage":"Site Visit","Land Extent":"12A","City":"Hyderabad","LeadReceivedOn":45914,"PrimaryOwner":"Aditya","Comments":"Owner documents awaited","SiteLocation":"https://www.google.com/maps/place/12%C2%B053'56.2%22N+77%C2%B040'46.5%22E/@12.8989444,77.6795833,680m/data=!3m2!1e3!4b1!4m4!3m3!8m2!3d12.8989444!4d77.6795833?entry=ttu&g_ep=EgoyMDI1MDkxMC4wIKXMDSoASAFQAw%3D%3D","__PowerAppsId__":""}},{"type":"Feature","geometry":{"type":"Point","coordinates":[78.413592,17.493314]},"properties":{"DealID":"ba4cdc15-2b2d-44f8-8fc0-8e176dbffdc20","LeadName":"Hyd-8","Status":"Dropped","Stage":"Prelim Offer","Land Extent":"34A","City":"Hyderabad","LeadReceivedOn":45915,"PrimaryOwner":"Sounder","Comments":"Owner documents awaited","SiteLocation":"https://www.google.com/maps/place/12%C2%B053'56.2%22N+77%C2%B040'46.5%22E/@12.8989444,77.6795833,680m/data=!3m2!1e3!4b1!4m4!3m3!8m2!3d12.8989444!4d77.6795833?entry=ttu&g_ep=EgoyMDI1MDkxMC4wIKXMDSoASAFQAw%3D%3D","__PowerAppsId__":""}},{"type":"Feature","geometry":{"type":"Point","coordinates":[78.377972,17.520837]},"properties":{"DealID":"ba4cdc15-2b2d-44f8-8fc0-8e177dbffdc21","LeadName":"Hyd-9","Status":"Dropped","Stage":"Final Offer","Land Extent":"35A","City":"Hyderabad","LeadReceivedOn":45916,"PrimaryOwner":"Karthik","Comments":"Owner documents awaited","SiteLocation":"https://www.google.com/maps/place/12%C2%B053'56.2%22N+77%C2%B040'46.5%22E/@12.8989444,77.6795833,680m/data=!3m2!1e3!4b1!4m4!3m3!8m2!3d12.8989444!4d77.6795833?entry=ttu&g_ep=EgoyMDI1MDkxMC4wIKXMDSoASAFQAw%3D%3D","__PowerAppsId__":""}},{"type":"Feature","geometry":{"type":"Point","coordinates":[78.46729,17.426512]},"properties":{"DealID":"ba4cdc15-2b2d-44f8-8fc0-8e178dbffdc22","LeadName":"Hyd-10","Status":"Active","Stage":"Advance Offer","Land Extent":"19A","City":"Hyderabad","LeadReceivedOn":45917,"PrimaryOwner":"Sounder","Comments":"Owner documents awaited","SiteLocation":"https://www.google.com/maps/place/12%C2%B053'56.2%22N+77%C2%B040'46.5%22E/@12.8989444,77.6795833,680m/data=!3m2!1e3!4b1!4m4!3m3!8m2!3d12.8989444!4d77.6795833?entry=ttu&g_ep=EgoyMDI1MDkxMC4wIKXMDSoASAFQAw%3D%3D","__PowerAppsId__":""}},{"type":"Feature","geometry":{"type":"Point","coordinates":[80.2249051,12.8077587]},"properties":{"DealID":"ba4cdc15-2b2d-44f8-8fc0-8e179dbffdc23","LeadName":"Chn-1","Status":"Active","Stage":"Qualified Lead","Land Extent":"9A","City":"Chennai","LeadReceivedOn":45918,"PrimaryOwner":"Akhil","Comments":"Owner documents awaited","SiteLocation":"https://www.google.com/maps/place/12%C2%B053'56.2%22N+77%C2%B040'46.5%22E/@12.8989444,77.6795833,680m/data=!3m2!1e3!4b1!4m4!3m3!8m2!3d12.8989444!4d77.6795833?entry=ttu&g_ep=EgoyMDI1MDkxMC4wIKXMDSoASAFQAw%3D%3D","__PowerAppsId__":""}},{"type":"Feature","geometry":{"type":"Point","coordinates":[80.185691,12.794834]},"properties":{"DealID":"ba4cdc15-2b2d-44f8-8fc0-8e180dbffdc24","LeadName":"Chn-2","Status":"Active","Stage":"Site Visit","Land Extent":"22A","City":"Chennai","LeadReceivedOn":45919,"PrimaryOwner":"Harsha","Comments":"Owner documents awaited","SiteLocation":"https://www.google.com/maps/place/12%C2%B053'56.2%22N+77%C2%B040'46.5%22E/@12.8989444,77.6795833,680m/data=!3m2!1e3!4b1!4m4!3m3!8m2!3d12.8989444!4d77.6795833?entry=ttu&g_ep=EgoyMDI1MDkxMC4wIKXMDSoASAFQAw%3D%3D","__PowerAppsId__":""}},{"type":"Feature","geometry":{"type":"Point","coordinates":[80.247199,12.822435]},"properties":{"DealID":"ba4cdc15-2b2d-44f8-8fc0-8e181dbffdc25","LeadName":"Chn-3","Status":"Active","Stage":"Prelim Offer","Land Extent":"25A","City":"Chennai","LeadReceivedOn":45920,"PrimaryOwner":"Harsha","Comments":"Owner documents awaited","SiteLocation":"https://www.google.com/maps/place/12%C2%B053'56.2%22N+77%C2%B040'46.5%22E/@12.8989444,77.6795833,680m/data=!3m2!1e3!4b1!4m4!3m3!8m2!3d12.8989444!4d77.6795833?entry=ttu&g_ep=EgoyMDI1MDkxMC4wIKXMDSoASAFQAw%3D%3D","__PowerAppsId__":""}},{"type":"Feature","geometry":{"type":"Point","coordinates":[80.263503,12.784983]},"properties":{"DealID":"ba4cdc15-2b2d-44f8-8fc0-8e182dbffdc26","LeadName":"Chn-4","Status":"On Hold","Stage":"Advance Offer","Land Extent":"80A","City":"Chennai","LeadReceivedOn":45921,"PrimaryOwner":"Akanksha","Comments":"Survey sketch shared and massing results awaited","SiteLocation":"https://www.google.com/maps/place/12%C2%B053'56.2%22N+77%C2%B040'46.5%22E/@12.8989444,77.6795833,680m/data=!3m2!1e3!4b1!4m4!3m3!8m2!3d12.8989444!4d77.6795833?entry=ttu&g_ep=EgoyMDI1MDkxMC4wIKXMDSoASAFQAw%3D%3D","__PowerAppsId__":""}},{"type":"Feature","geometry":{"type":"Point","coordinates":[80.232924,12.819001]},"properties":{"DealID":"ba4cdc15-2b2d-44f8-8fc0-8e183dbffdc27","LeadName":"Chn-5","Status":"On Hold","Stage":"Term Sheet","Land Extent":"12A","City":"Chennai","LeadReceivedOn":45922,"PrimaryOwner":"Harsha","Comments":"APR Alignment awaited","SiteLocation":"https://www.google.com/maps/place/12%C2%B053'56.2%22N+77%C2%B040'46.5%22E/@12.8989444,77.6795833,680m/data=!3m2!1e3!4b1!4m4!3m3!8m2!3d12.8989444!4d77.6795833?entry=ttu&g_ep=EgoyMDI1MDkxMC4wIKXMDSoASAFQAw%3D%3D","__PowerAppsId__":""}},{"type":"Feature","geometry":{"type":"Point","coordinates":[80.199159,12.774847]},"properties":{"DealID":"ba4cdc15-2b2d-44f8-8fc0-8e184dbffdc28","LeadName":"Chn-6","Status":"On Hold","Stage":"Qualified Lead","Land Extent":"51A","City":"Chennai","LeadReceivedOn":45923,"PrimaryOwner":"Akanksha","Comments":"Owner documents awaited","SiteLocation":"https://www.google.com/maps/place/12%C2%B053'56.2%22N+77%C2%B040'46.5%22E/@12.8989444,77.6795833,680m/data=!3m2!1e3!4b1!4m4!3m3!8m2!3d12.8989444!4d77.6795833?entry=ttu&g_ep=EgoyMDI1MDkxMC4wIKXMDSoASAFQAw%3D%3D","__PowerAppsId__":""}},{"type":"Feature","geometry":{"type":"Point","coordinates":[80.183813,12.802625]},"properties":{"DealID":"ba4cdc15-2b2d-44f8-8fc0-8e185dbffdc29","LeadName":"Chn-7","Status":"Dropped","Stage":"Site Visit","Land Extent":"32A","City":"Chennai","LeadReceivedOn":45924,"PrimaryOwner":"Karthik","Comments":"Owner documents awaited","SiteLocation":"https://www.google.com/maps/place/12%C2%B053'56.2%22N+77%C2%B040'46.5%22E/@12.8989444,77.6795833,680m/data=!3m2!1e3!4b1!4m4!3m3!8m2!3d12.8989444!4d77.6795833?entry=ttu&g_ep=EgoyMDI1MDkxMC4wIKXMDSoASAFQAw%3D%3D","__PowerAppsId__":""}},{"type":"Feature","geometry":{"type":"Point","coordinates":[80.219227,12.840218]},"properties":{"DealID":"ba4cdc15-2b2d-44f8-8fc0-8e186dbffdc30","LeadName":"Chn-8","Status":"Dropped","Stage":"Prelim Offer","Land Extent":"30A","City":"Chennai","LeadReceivedOn":45925,"PrimaryOwner":"Faiz","Comments":"Owner documents awaited","SiteLocation":"https://www.google.com/maps/place/12%C2%B053'56.2%22N+77%C2%B040'46.5%22E/@12.8989444,77.6795833,680m/data=!3m2!1e3!4b1!4m4!3m3!8m2!3d12.8989444!4d77.6795833?entry=ttu&g_ep=EgoyMDI1MDkxMC4wIKXMDSoASAFQAw%3D%3D","__PowerAppsId__":""}},{"type":"Feature","geometry":{"type":"Point","coordinates":[80.154287,12.849671]},"properties":{"DealID":"ba4cdc15-2b2d-44f8-8fc0-8e187dbffdc31","LeadName":"Chn-9","Status":"Dropped","Stage":"Final Offer","Land Extent":"28A","City":"Chennai","LeadReceivedOn":45926,"PrimaryOwner":"Akanksha","Comments":"Owner documents awaited","SiteLocation":"https://www.google.com/maps/place/12%C2%B053'56.2%22N+77%C2%B040'46.5%22E/@12.8989444,77.6795833,680m/data=!3m2!1e3!4b1!4m4!3m3!8m2!3d12.8989444!4d77.6795833?entry=ttu&g_ep=EgoyMDI1MDkxMC4wIKXMDSoASAFQAw%3D%3D","__PowerAppsId__":""}},{"type":"Feature","geometry":{"type":"Point","coordinates":[80.259172,12.746885]},"properties":{"DealID":"ba4cdc15-2b2d-44f8-8fc0-8e188dbffdc32","LeadName":"Chn-10","Status":"Active","Stage":"Advance Offer","Land Extent":"27A","City":"Chennai","LeadReceivedOn":45927,"PrimaryOwner":"Karthik","Comments":"Owner documents awaited","SiteLocation":"https://www.google.com/maps/place/12%C2%B053'56.2%22N+77%C2%B040'46.5%22E/@12.8989444,77.6795833,680m/data=!3m2!1e3!4b1!4m4!3m3!8m2!3d12.8989444!4d77.6795833?entry=ttu&g_ep=EgoyMDI1MDkxMC4wIKXMDSoASAFQAw%3D%3D","__PowerAppsId__":""}}]}